CCSDS_OEM_VERS = 1.0
CREATION_DATE  = 2017-05-11T11:16:56
ORIGINATOR     = GMAT USER

META_START
OBJECT_NAME          = MOPSSat_alt_35785_km_RAAN_90_088
OBJECT_ID            = SatId
CENTER_NAME          = Earth
REF_FRAME            = EME2000
TIME_SYSTEM          = UTC
START_TIME           = 2017-01-01T00:00:00.000
USEABLE_START_TIME   = 2017-01-01T00:00:00.000
USEABLE_STOP_TIME    = 2017-01-02T00:00:00.000
STOP_TIME            = 2017-01-02T00:00:00.000
INTERPOLATION        = Lagrange
INTERPOLATION_DEGREE = 7 
META_STOP


                                                                                   

2017-01-01T05:30:00.000  -4.186713470345349e+04   4.500745408530346e+03   7.313677551766376e+02  -3.592642426695888e-01  -3.057198162441052e+00   6.313354452668848e-03
2017-01-01T05:30:10.000  -4.187071617465005e+04   4.470172228415952e+03   7.314306936771594e+02  -3.570299589602213e-01  -3.057437467654396e+00   6.274344985276928e-03
2017-01-01T05:30:20.000  -4.187427530229510e+04   4.439596663467019e+03   7.314932420703258e+02  -3.547955333164514e-01  -3.057675136143192e+00   6.235332998186245e-03
2017-01-01T05:30:30.000  -4.187781208494768e+04   4.409018730291102e+03   7.315554003305587e+02  -3.525609669586492e-01  -3.057911167849565e+00   6.196318512695692e-03
2017-01-01T05:30:40.000  -4.188132652117057e+04   4.378438445569293e+03   7.316171684323449e+02  -3.503262611124898e-01  -3.058145562715978e+00   6.157301550196803e-03
2017-01-01T05:30:50.000  -4.188481860961101e+04   4.347855825354572e+03   7.316785463516539e+02  -3.480914169576784e-01  -3.058378320690612e+00   6.118282131278524e-03
2017-01-01T05:31:00.000  -4.188828834891959e+04   4.317270885775204e+03   7.317395340645127e+02  -3.458564356793522e-01  -3.058609441721954e+00   6.079260276624674e-03
2017-01-01T05:31:10.000  -4.189173573777134e+04   4.286683642853170e+03   7.318001315473765e+02  -3.436213184548120e-01  -3.058838925760220e+00   6.040236006782281e-03
2017-01-01T05:31:20.000  -4.189516077480828e+04   4.256094112992299e+03   7.318603387761183e+02  -3.413860664891953e-01  -3.059066772753495e+00   6.001209342784419e-03
2017-01-01T05:31:30.000  -4.189856345868724e+04   4.225502312575480e+03   7.319201557268706e+02  -3.391506809860395e-01  -3.059292982650938e+00   5.962180305636253e-03
2017-01-01T05:31:40.000  -4.190194378806875e+04   4.194908258057513e+03   7.319795823758298e+02  -3.369151631540676e-01  -3.059517555402049e+00   5.923148916433516e-03
2017-01-01T05:31:50.000  -4.190530176162273e+04   4.164311965929244e+03   7.320386186993539e+02  -3.346795142045655e-01  -3.059740490957042e+00   5.884115196316718e-03
2017-01-01T05:32:00.000  -4.190863737802891e+04   4.133713452700303e+03   7.320972646739745e+02  -3.324437353501226e-01  -3.059961789266879e+00   5.845079166449147e-03
2017-01-01T05:32:10.000  -4.191195063598110e+04   4.103112734862481e+03   7.321555202764671e+02  -3.302078278019546e-01  -3.060181450283539e+00   5.806040847970153e-03
2017-01-01T05:32:20.000  -4.191524153419016e+04   4.072509828872714e+03   7.322133854839055e+02  -3.279717927686605e-01  -3.060399473960233e+00   5.767000261973419e-03
2017-01-01T05:32:30.000  -4.191851007138631e+04   4.041904751116909e+03   7.322708602737039e+02  -3.257356314535790e-01  -3.060615860251547e+00   5.727957429460816e-03
2017-01-01T05:32:40.000  -4.192175624630993e+04   4.011297518002950e+03   7.323279446234523e+02  -3.234993450615856e-01  -3.060830609112830e+00   5.688912371461084e-03
2017-01-01T05:32:50.000  -4.192498005775215e+04   3.980688145557201e+03   7.323846385116310e+02  -3.212629347696134e-01  -3.061043720502866e+00   5.649865108515104e-03
2017-01-01T05:33:00.000  -4.192818150450499e+04   3.950076649913409e+03   7.324409419167363e+02  -3.190264017623713e-01  -3.061255194380602e+00   5.610815661299562e-03
2017-01-01T05:33:10.000  -4.193136058538063e+04   3.919463047127944e+03   7.324968548176161e+02  -3.167897472188451e-01  -3.061465030706398e+00   5.571764050391246e-03
2017-01-01T05:33:20.000  -4.193451729913677e+04   3.888847353895520e+03   7.325523771921584e+02  -3.145529723645905e-01  -3.061673229437115e+00   5.532710297180076e-03
2017-01-01T05:33:30.000  -4.193765164455125e+04   3.858229586833482e+03   7.326075090186056e+02  -3.123160784194393e-01  -3.061879790531043e+00   5.493654422956061e-03
2017-01-01T05:33:40.000  -4.194076362040277e+04   3.827609762666485e+03   7.326622502752103e+02  -3.100790666109956e-01  -3.062084713946606e+00   5.454596449144946e-03
2017-01-01T05:33:50.000  -4.194385322552282e+04   3.796987897737828e+03   7.327166009411565e+02  -3.078419381389291e-01  -3.062287999645832e+00   5.415536396684771e-03
2017-01-01T05:34:00.000  -4.194692045875248e+04   3.766364008412650e+03   7.327705609957900e+02  -3.056046942044366e-01  -3.062489647591462e+00   5.376474286540279e-03
2017-01-01T05:34:10.000  -4.194996531895228e+04   3.735738110984989e+03   7.328241304188005e+02  -3.033673360034501e-01  -3.062689657747618e+00   5.337410139584298e-03
2017-01-01T05:34:20.000  -4.195298780499711e+04   3.705110221713657e+03   7.328773091901281e+02  -3.011298647292608e-01  -3.062888030079454e+00   5.298343976643597e-03
2017-01-01T05:34:30.000  -4.195598791577577e+04   3.674480356839505e+03   7.329300972899556e+02  -2.988922815737778e-01  -3.063084764553132e+00   5.259275818520830e-03
2017-01-01T05:34:40.000  -4.195896565018735e+04   3.643848532622057e+03   7.329824946986456e+02  -2.966545877302049e-01  -3.063279861135592e+00   5.220205686041285e-03
2017-01-01T05:34:50.000  -4.196192100713831e+04   3.613214765356538e+03   7.330345013966884e+02  -2.944167843942856e-01  -3.063473319794341e+00   5.181133600074632e-03
2017-01-01T05:35:00.000  -4.196485398554048e+04   3.582579071410064e+03   7.330861173646667e+02  -2.921788727669458e-01  -3.063665140497341e+00   5.142059581581039e-03
2017-01-01T05:35:10.000  -4.196776458431941e+04   3.551941467128515e+03   7.331373425834040e+02  -2.899408540474904e-01  -3.063855323213552e+00   5.102983651492411e-03
2017-01-01T05:35:20.000  -4.197065280237817e+04   3.521301969240405e+03   7.331881770333259e+02  -2.877027294631024e-01  -3.064043867910573e+00   5.063905831227442e-03
2017-01-01T05:35:30.000  -4.197351863864170e+04   3.490660594367477e+03   7.332386206952398e+02  -2.854645002330982e-01  -3.064230774557530e+00   5.024826142067479e-03
2017-01-01T05:35:40.000  -4.197636209203998e+04   3.460017359206685e+03   7.332886735500418e+02  -2.832261675822159e-01  -3.064416043123991e+00   4.985744605388591e-03
2017-01-01T05:35:50.000  -4.197918316157383e+04   3.429372279825316e+03   7.333383355798720e+02  -2.809877326891307e-01  -3.064599673584231e+00   4.946661241762604e-03
2017-01-01T05:36:00.000  -4.198198184624912e+04   3.398725372364038e+03   7.333876067669585e+02  -2.787491967378088e-01  -3.064781665912962e+00   4.907576071853744e-03
2017-01-01T05:36:10.000  -4.198475814509211e+04   3.368076652877627e+03   7.334364870938856e+02  -2.765105609058715e-01  -3.064962020086325e+00   4.868489116215497e-03
2017-01-01T05:36:20.000  -4.198751205711030e+04   3.337426137731637e+03   7.334849765429074e+02  -2.742718263935746e-01  -3.065140736079335e+00   4.829400395796566e-03
2017-01-01T05:36:30.000  -4.199024358132252e+04   3.306773843307958e+03   7.335330750964728e+02  -2.720329944022959e-01  -3.065317813867841e+00   4.790309931565280e-03
2017-01-01T05:36:40.000  -4.199295271675743e+04   3.276119786004704e+03   7.335807827372045e+02  -2.697940661345298e-01  -3.065493253428436e+00   4.751217744509490e-03
2017-01-01T05:36:50.000  -4.199563946243063e+04   3.245463982531188e+03   7.336280994474923e+02  -2.675550428154276e-01  -3.065667054736994e+00   4.712123856012664e-03
2017-01-01T05:37:00.000  -4.199830381737681e+04   3.214806449510688e+03   7.336750252100599e+02  -2.653159256637865e-01  -3.065839217770724e+00   4.673028287347384e-03
2017-01-01T05:37:10.000  -4.200094578063679e+04   3.184147203636885e+03   7.337215600077375e+02  -2.630767159034772e-01  -3.066009742507339e+00   4.633931059874815e-03
2017-01-01T05:37:20.000  -4.200356535131707e+04   3.153486260981998e+03   7.337677038245100e+02  -2.608374147129108e-01  -3.066178628928910e+00   4.594832194162433e-03
2017-01-01T05:37:30.000  -4.200616252853013e+04   3.122823637688620e+03   7.338134566444654e+02  -2.585980232755689e-01  -3.066345877017994e+00   4.555731710866266e-03
2017-01-01T05:37:40.000  -4.200873731140811e+04   3.092159349813322e+03   7.338588184520373e+02  -2.563585427685802e-01  -3.066511486758531e+00   4.516629630531442e-03
2017-01-01T05:37:50.000  -4.201128969906661e+04   3.061493413723549e+03   7.339037892313647e+02  -2.541189743917114e-01  -3.066675458133485e+00   4.477525974098399e-03
2017-01-01T05:38:00.000  -4.201381969063250e+04   3.030825845803006e+03   7.339483689667838e+02  -2.518793193458459e-01  -3.066837791126660e+00   4.438420762527087e-03
2017-01-01T05:38:10.000  -4.201632728524266e+04   3.000156662451557e+03   7.339925576428057e+02  -2.496395788329784e-01  -3.066998485722616e+00   4.399314016796904e-03
2017-01-01T05:38:20.000  -4.201881248202292e+04   2.969485880380321e+03   7.340363552437436e+02  -2.473997540777610e-01  -3.067157541905331e+00   4.360205758282871e-03
2017-01-01T05:38:30.000  -4.202127528011768e+04   2.938813516214261e+03   7.340797617542366e+02  -2.451598462984852e-01  -3.067314959660086e+00   4.321096008248988e-03
2017-01-01T05:38:40.000  -4.202371567867757e+04   2.908139586651676e+03   7.341227771590321e+02  -2.429198567187278e-01  -3.067470738972682e+00   4.281984788051559e-03
2017-01-01T05:38:50.000  -4.202613367691566e+04   2.877464107760397e+03   7.341654014439738e+02  -2.406797865159555e-01  -3.067624879833012e+00   4.242872118241819e-03
2017-01-01T05:39:00.000  -4.202852927405089e+04   2.846787095683342e+03   7.342076345950087e+02  -2.384396368730478e-01  -3.067777382231468e+00   4.203758019465560e-03
